IRIDIUM 119             
1 42959U 17061E   25019.56063210  .00000042  00000+0  77892-5 0  9997
2 42959  86.3947 239.8407 0001760  93.3925 266.7473 14.34217894381196
IRIDIUM 107             
1 42960U 17061F   25019.57966055 -.00000112  00000+0 -47143-4 0  9994
2 42960  86.3952 239.8503 0001904 100.4409 259.7002 14.34217853381205
IRIDIUM 132             
1 42961U 17061G   25019.58600461  .00000115  00000+0  34007-4 0  9998
2 42961  86.3949 239.8313 0001946  91.2418 268.9001 14.34214355381209
IRIDIUM 136             
1 42962U 17061H   25019.61771449  .00000119  00000+0  35496-4 0  9995
2 42962  86.3946 239.8225 0001697  96.2333 263.9057 14.34217564381226
IRIDIUM 139             
1 42963U 17061J   25019.62405890  .00000020  00000+0 -78537-7 0  9999
2 42963  86.3947 239.8733 0001979  97.5471 262.5950 14.34217486381233
IRIDIUM 125             
1 42964U 17061K   25019.61137545  .00000524  00000+0  18015-3 0  9997
2 42964  86.3949 239.9302 0001431 100.4579 259.6778 14.34217273381245
IRIDIUM 135             
1 43070U 17083A   25019.51572956  .00000188  00000+0  60208-4 0  9996
2 43070  86.4006 176.7031 0002127  89.3684 270.7755 14.34216698370529
IRIDIUM 138             
1 43071U 17083B   25019.47133103  .00000155  00000+0  48312-4 0  9995
2 43071  86.3994 176.4121 0001360  89.9268 270.2084 14.34218247370504
